Total gap duration: 2 days, 22:57:45.441413
STARLINK-30780
1 58140U 23162Y   24101.32204640  .00001512  00000+0  12700-3 0  9992
2 58140  43.0035 328.1260 0001227 272.8059  87.2643 15.02537839 26036
Total gap duration: 2 days, 22:10:10.982062
STARLINK-4427
1 53210U 22084X   24101.44008916 -.00002799  00000+0 -21333-3 0  9990
2 53210  97.6555 163.2527 0002038  86.9119 273.2338 15.01278214 94937
Total gap duration: 2 days, 22:55:08.001269
STARLINK-30066
1 56704U 23067S   24101.14384942 -.00001241  00000+0 -76765-4 0  9997
2 56704  43.0032 109.8783 0001249 274.4584  85.6115 15.02544722 49733
Total gap duration: 2 days, 22:10:23.920153
STARLINK-1190
1 45083U 20006AR  24101.21392913  .00010440  00000+0  71844-3 0  9991
2 45083  53.0532 182.1944 0001261  76.7547 283.3583 15.06416405231522
Total gap duration: 2 days, 22:03:16.333938
STARLINK-1240
1 45194U 20012S   24101.26184726 -.00000058  00000+0  15003-4 0  9998
2 45194  53.0560 301.9816 0001432  94.0703 266.0449 15.06387800228635
Total gap duration: 2 days, 22:40:53.092047
STARLINK-5711
1 55471U 23015Y   24101.51725870 -.00000156  00000+0  35569-5 0  9991
2 55471  43.0028 159.4115 0001195 269.9516  90.1190 15.02531291 65731
Total gap duration: 2 days, 22:25:35.583403
STARLINK-30147
1 57511U 23113S   24100.99548479  .00001033  00000+0  91534-4 0  9993
2 57511  43.0047 214.2556 0001535 263.2702  96.7966 15.02532660 38554
Total gap duration: 2 days, 21:53:05.691705
STARLINK-3190
1 49766U 21115AU  24101.08714401 -.00000944  00000+0 -41248-4 0  9996
2 49766  53.2218  35.2808 0001431  82.4793 277.6362 15.08826326131327
Total gap duration: 2 days, 22:20:47.098226
STARLINK-2455
1 48117U 21027AB  24100.89185019  .00007468  00000+0  51939-3 0  9995
2 48117  53.0548  48.6299 0001649  87.1620 272.9558 15.06423918166976
Total gap duration: 2 days, 22:40:30.830168
STARLINK-1494
1 45760U 20038AG  24101.42312116  .00005240  00000+0  37038-3 0  9997
2 45760  53.0530 111.2581 0001429  85.1249 274.9903 15.06400002212157
Total gap duration: 2 days, 22:27:27.566946
